IRIDIUM 151             
1 43074U 17083E   26116.38966615  .00000114  00000+0  33802-4 0  9992
2 43074  86.3987 343.7199 0002158  84.6235 275.5207 14.34218206436711
IRIDIUM 134             
1 43075U 17083F   26116.35795348  .00000120  00000+0  35819-4 0  9990
2 43075  86.3990 343.7407 0002274  86.0918 274.0538 14.34217984436679
IRIDIUM 137             
1 43076U 17083G   26116.37063750  .00000099  00000+0  28440-4 0  9995
2 43076  86.3995 343.8271 0002088  71.9034 288.2389 14.34218310436743
IRIDIUM 141             
1 43077U 17083H   26116.36429410  .00000194  00000+0  62143-4 0  9998
2 43077  86.3986 343.6633 0002083  87.1819 272.9615 14.34218757436746
IRIDIUM 153             
1 43078U 17083J   26116.52578000  .00000049  00000+0  10378-4 0  9999
2 43078  86.3936 312.0863 0002119  94.8748 265.2690 14.34217851437870
IRIDIUM 131             
1 43079U 17083K   26116.35161073  .00000060  00000+0  14265-4 0  9991
2 43079  86.3994 343.8512 0002089  85.9837 274.1598 14.34217667436672
IRIDIUM 144             
1 43249U 18030A   26116.25305183  .00000062  00000+0  15029-4 0  9995
2 43249  86.3934 312.1309 0002237  86.1606 273.9846 14.34217306422690
IRIDIUM 149             
1 43250U 18030B   26116.46869980  .00000068  00000+0  17239-4 0  9991
2 43250  86.3933 312.0083 0002070  90.0905 270.0528 14.34217460422742
IRIDIUM 157             
1 43251U 18030C   26116.48772549  .00000062  00000+0  15216-4 0  9995
2 43251  86.3935 312.0523 0002166  89.1817 270.9627 14.34217784422727
IRIDIUM 140             
1 43252U 18030D   26116.50675516  .00000076  00000+0  19935-4 0  9992
2 43252  86.3935 312.0570 0002225  88.8782 271.2669 14.34217625422783
IRIDIUM 145             
1 43253U 18030E   26116.49406848  .00000065  00000+0  16322-4 0  9996
2 43253  86.3936 312.0348 0002363  82.4561 277.6903 14.34217814422710
IRIDIUM 146             
1 43254U 18030F   26116.47504034  .00000073  00000+0  19121-4 0  9990
2 43254  86.3934 312.0550 0002226  86.4597 273.6853 14.34217885422724
IRIDIUM 148             
1 43255U 18030G   26116.51311053  .00000063  00000+0  15293-4 0  9998
2 43255  86.3936 312.0815 0002088  86.3381 273.8053 14.34215612422761
IRIDIUM 142             
1 43256U 18030H   26116.48139729  .00000061  00000+0  14600-4 0  9992
2 43256  86.3933 311.9857 0002290  84.3124 275.8333 14.34215146422722
IRIDIUM 150             
1 43257U 18030J   26116.51943752  .00000031  00000+0  41073-5 0  9998
2 43257  86.3935 312.0843 0002203  88.4117 271.7331 14.34217742422753
IRIDIUM 143             
1 43258U 18030K   26116.50040973  .00000061  00000+0  14593-4 0  9990
2 43258  86.3939 312.1828 0002254  86.2517 273.8937 14.34218061422680
IRIDIUM 161             
1 43478U 18047C   26116.44818579  .00000203  00000+0  54274-4 0  9998
2 43478  86.4445 110.1089 0002019  91.0726 269.0706 14.43281487417673
