[{"OBJECT_NAME":"IRIDIUM 151","OBJECT_ID":"2017-083E","EPOCH":"2026-04-26T09:21:07.155360","MEAN_MOTION":14.34218206,"ECCENTRICITY":0.0002158,"INCLINATION":86.3987,"RA_OF_ASC_NODE":343.7199,"ARG_OF_PERICENTER":84.6235,"MEAN_ANOMALY":275.5207,"EPHEMERIS_TYPE":0,"CLASSIFICATION_TYPE":"U","NORAD_CAT_ID":43074,"ELEMENT_SET_NO":999,"REV_AT_EPOCH":43671,"BSTAR":3.3802e-5,"MEAN_MOTION_DOT":1.14e-6,"MEAN_MOTION_DDOT":0},{"OBJECT_NAME":"IRIDIUM 134","OBJECT_ID":"2017-083F","EPOCH":"2026-04-26T08:35:27.180672","MEAN_MOTION":14.34217984,"ECCENTRICITY":0.0002274,"INCLINATION":86.399,"RA_OF_ASC_NODE":343.7407,"ARG_OF_PERICENTER":86.0918,"MEAN_ANOMALY":274.0538,"EPHEMERIS_TYPE":0,"CLASSIFICATION_TYPE":"U","NORAD_CAT_ID":43075,"ELEMENT_SET_NO":999,"REV_AT_EPOCH":43667,"BSTAR":3.5819e-5,"MEAN_MOTION_DOT":1.2e-6,"MEAN_MOTION_DDOT":0},{"OBJECT_NAME":"IRIDIUM 137","OBJECT_ID":"2017-083G","EPOCH":"2026-04-26T08:53:43.080000","MEAN_MOTION":14.3421831,"ECCENTRICITY":0.0002088,"INCLINATION":86.3995,"RA_OF_ASC_NODE":343.8271,"ARG_OF_PERICENTER":71.9034,"MEAN_ANOMALY":288.2389,"EPHEMERIS_TYPE":0,"CLASSIFICATION_TYPE":"U","NORAD_CAT_ID":43076,"ELEMENT_SET_NO":999,"REV_AT_EPOCH":43674,"BSTAR":2.844e-5,"MEAN_MOTION_DOT":9.9e-7,"MEAN_MOTION_DDOT":0},{"OBJECT_NAME":"IRIDIUM 141","OBJECT_ID":"2017-083H","EPOCH":"2026-04-26T08:44:35.010240","MEAN_MOTION":14.34218757,"ECCENTRICITY":0.0002083,"INCLINATION":86.3986,"RA_OF_ASC_NODE":343.6633,"ARG_OF_PERICENTER":87.1819,"MEAN_ANOMALY":272.9615,"EPHEMERIS_TYPE":0,"CLASSIFICATION_TYPE":"U","NORAD_CAT_ID":43077,"ELEMENT_SET_NO":999,"REV_AT_EPOCH":43674,"BSTAR":6.2143e-5,"MEAN_MOTION_DOT":1.94e-6,"MEAN_MOTION_DDOT":0},{"OBJECT_NAME":"IRIDIUM 153","OBJECT_ID":"2017-083J","EPOCH":"2026-04-26T12:37:07.392000","MEAN_MOTION":14.34217851,"ECCENTRICITY":0.0002119,"INCLINATION":86.3936,"RA_OF_ASC_NODE":312.0863,"ARG_OF_PERICENTER":94.8748,"MEAN_ANOMALY":265.269,"EPHEMERIS_TYPE":0,"CLASSIFICATION_TYPE":"U","NORAD_CAT_ID":43078,"ELEMENT_SET_NO":999,"REV_AT_EPOCH":43787,"BSTAR":1.0378e-5,"MEAN_MOTION_DOT":4.9e-7,"MEAN_MOTION_DDOT":0},{"OBJECT_NAME":"IRIDIUM 131","OBJECT_ID":"2017-083K","EPOCH":"2026-04-26T08:26:19.167072","MEAN_MOTION":14.34217667,"ECCENTRICITY":0.0002089,"INCLINATION":86.3994,"RA_OF_ASC_NODE":343.8512,"ARG_OF_PERICENTER":85.9837,"MEAN_ANOMALY":274.1598,"EPHEMERIS_TYPE":0,"CLASSIFICATION_TYPE":"U","NORAD_CAT_ID":43079,"ELEMENT_SET_NO":999,"REV_AT_EPOCH":43667,"BSTAR":1.4265e-5,"MEAN_MOTION_DOT":6.0e-7,"MEAN_MOTION_DDOT":0},{"OBJECT_NAME":"IRIDIUM 144","OBJECT_ID":"2018-030A","EPOCH":"2026-04-26T06:04:23.678112","MEAN_MOTION":14.34217306,"ECCENTRICITY":0.0002237,"INCLINATION":86.3934,"RA_OF_ASC_NODE":312.1309,"ARG_OF_PERICENTER":86.1606,"MEAN_ANOMALY":273.9846,"EPHEMERIS_TYPE":0,"CLASSIFICATION_TYPE":"U","NORAD_CAT_ID":43249,"ELEMENT_SET_NO":999,"REV_AT_EPOCH":42269,"BSTAR":1.5029e-5,"MEAN_MOTION_DOT":6.2e-7,"MEAN_MOTION_DDOT":0},{"OBJECT_NAME":"IRIDIUM 149","OBJECT_ID":"2018-030B","EPOCH":"2026-04-26T11:14:55.662720","MEAN_MOTION":14.3421746,"ECCENTRICITY":0.000207,"INCLINATION":86.3933,"RA_OF_ASC_NODE":312.0083,"ARG_OF_PERICENTER":90.0905,"MEAN_ANOMALY":270.0528,"EPHEMERIS_TYPE":0,"CLASSIFICATION_TYPE":"U","NORAD_CAT_ID":43250,"ELEMENT_SET_NO":999,"REV_AT_EPOCH":42274,"BSTAR":1.7239e-5,"MEAN_MOTION_DOT":6.8e-7,"MEAN_MOTION_DDOT":0},{"OBJECT_NAME":"IRIDIUM 157","OBJECT_ID":"2018-030C","EPOCH":"2026-04-26T11:42:19.482336","MEAN_MOTION":14.34217784,"ECCENTRICITY":0.0002166,"INCLINATION":86.3935,"RA_OF_ASC_NODE":312.0523,"ARG_OF_PERICENTER":89.1817,"MEAN_ANOMALY":270.9627,"EPHEMERIS_TYPE":0,"CLASSIFICATION_TYPE":"U","NORAD_CAT_ID":43251,"ELEMENT_SET_NO":999,"REV_AT_EPOCH":42272,"BSTAR":1.5216e-5,"MEAN_MOTION_DOT":6.2e-7,"MEAN_MOTION_DDOT":0},{"OBJECT_NAME":"IRIDIUM 140","OBJECT_ID":"2018-030D","EPOCH":"2026-04-26T12:09:43.645824","MEAN_MOTION":14.34217625,"ECCENTRICITY":0.0002225,"INCLINATION":86.3935,"RA_OF_ASC_NODE":312.057,"ARG_OF_PERICENTER":88.8782,"MEAN_ANOMALY":271.2669,"EPHEMERIS_TYPE":0,"CLASSIFICATION_TYPE":"U","NORAD_CAT_ID":43252,"ELEMENT_SET_NO":999,"REV_AT_EPOCH":42278,"BSTAR":1.9935e-5,"MEAN_MOTION_DOT":7.6e-7,"MEAN_MOTION_DDOT":0},{"OBJECT_NAME":"IRIDIUM 145","OBJECT_ID":"2018-030E","EPOCH":"2026-04-26T11:51:27.516672","MEAN_MOTION":14.34217814,"ECCENTRICITY":0.0002363,"INCLINATION":86.3936,"RA_OF_ASC_NODE":312.0348,"ARG_OF_PERICENTER":82.4561,"MEAN_ANOMALY":277.6903,"EPHEMERIS_TYPE":0,"CLASSIFICATION_TYPE":"U","NORAD_CAT_ID":43253,"ELEMENT_SET_NO":999,"REV_AT_EPOCH":42271,"BSTAR":1.6322e-5,"MEAN_MOTION_DOT":6.5e-7,"MEAN_MOTION_DDOT":0},{"OBJECT_NAME":"IRIDIUM 146","OBJECT_ID":"2018-030F","EPOCH":"2026-04-26T11:24:03.485376","MEAN_MOTION":14.34217885,"ECCENTRICITY":0.0002226,"INCLINATION":86.3934,"RA_OF_ASC_NODE":312.055,"ARG_OF_PERICENTER":86.4597,"MEAN_ANOMALY":273.6853,"EPHEMERIS_TYPE":0,"CLASSIFICATION_TYPE":"U","NORAD_CAT_ID":43254,"ELEMENT_SET_NO":999,"REV_AT_EPOCH":42272,"BSTAR":1.9121e-5,"MEAN_MOTION_DOT":7.3e-7,"MEAN_MOTION_DDOT":0},{"OBJECT_NAME":"IRIDIUM 148","OBJECT_ID":"2018-030G","EPOCH":"2026-04-26T12:18:52.749792","MEAN_MOTION":14.34215612,"ECCENTRICITY":0.0002088,"INCLINATION":86.3936,"RA_OF_ASC_NODE":312.0815,"ARG_OF_PERICENTER":86.3381,"MEAN_ANOMALY":273.8053,"EPHEMERIS_TYPE":0,"CLASSIFICATION_TYPE":"U","NORAD_CAT_ID":43255,"ELEMENT_SET_NO":999,"REV_AT_EPOCH":42276,"BSTAR":1.5293e-5,"MEAN_MOTION_DOT":6.3e-7,"MEAN_MOTION_DDOT":0},{"OBJECT_NAME":"IRIDIUM 142","OBJECT_ID":"2018-030H","EPOCH":"2026-04-26T11:33:12.725856","MEAN_MOTION":14.34215146,"ECCENTRICITY":0.000229,"INCLINATION":86.3933,"RA_OF_ASC_NODE":311.9857,"ARG_OF_PERICENTER":84.3124,"MEAN_ANOMALY":275.8333,"EPHEMERIS_TYPE":0,"CLASSIFICATION_TYPE":"U","NORAD_CAT_ID":43256,"ELEMENT_SET_NO":999,"REV_AT_EPOCH":42272,"BSTAR":1.46e-5,"MEAN_MOTION_DOT":6.1e-7,"MEAN_MOTION_DDOT":0},{"OBJECT_NAME":"IRIDIUM 150","OBJECT_ID":"2018-030J","EPOCH":"2026-04-26T12:27:59.401728","MEAN_MOTION":14.34217742,"ECCENTRICITY":0.0002203,"INCLINATION":86.3935,"RA_OF_ASC_NODE":312.0843,"ARG_OF_PERICENTER":88.4117,"MEAN_ANOMALY":271.7331,"EPHEMERIS_TYPE":0,"CLASSIFICATION_TYPE":"U","NORAD_CAT_ID":43257,"ELEMENT_SET_NO":999,"REV_AT_EPOCH":42275,"BSTAR":4.1073e-6,"MEAN_MOTION_DOT":3.1e-7,"MEAN_MOTION_DDOT":0},{"OBJECT_NAME":"IRIDIUM 143","OBJECT_ID":"2018-030K","EPOCH":"2026-04-26T12:00:35.400672","MEAN_MOTION":14.34218061,"ECCENTRICITY":0.0002254,"INCLINATION":86.3939,"RA_OF_ASC_NODE":312.1828,"ARG_OF_PERICENTER":86.2517,"MEAN_ANOMALY":273.8937,"EPHEMERIS_TYPE":0,"CLASSIFICATION_TYPE":"U","NORAD_CAT_ID":43258,"ELEMENT_SET_NO":999,"REV_AT_EPOCH":42268,"BSTAR":1.4593e-5,"MEAN_MOTION_DOT":6.1e-7,"MEAN_MOTION_DDOT":0},{"OBJECT_NAME":"IRIDIUM 161","OBJECT_ID":"2018-047C","EPOCH":"2026-04-26T10:45:23.252256","MEAN_MOTION":14.43281487,"ECCENTRICITY":0.0002019,"INCLINATION":86.4445,"RA_OF_ASC_NODE":110.1089,"ARG_OF_PERICENTER":91.0726,"MEAN_ANOMALY":269.0706,"EPHEMERIS_TYPE":0,"CLASSIFICATION_TYPE":"U","NORAD_CAT_ID":43478,"ELEMENT_SET_NO":999,"REV_AT_EPOCH":41767,"BSTAR":5.4274e-5,"MEAN_MOTION_DOT":2.03e-6,"MEAN_MOTION_DDOT":0}]
